[{"OBJECT_NAME":"STARLINK-5170","OBJECT_ID":"2022-136M","EPOCH":"2026-03-09T22:47:38.098464","MEAN_MOTION":15.08834497,"ECCENTRICITY":0.00011991,"INCLINATION":53.2195,"RA_OF_ASC_NODE":342.9211,"ARG_OF_PERICENTER":105.0717,"MEAN_ANOMALY":255.0408,"EPHEMERIS_TYPE":0,"CLASSIFICATION_TYPE":"U","NORAD_CAT_ID":54062,"ELEMENT_SET_NO":999,"REV_AT_EPOCH":18688,"BSTAR":9.6227376e-5,"MEAN_MOTION_DOT":1.244e-5,"MEAN_MOTION_DDOT":0},{"OBJECT_NAME":"OBJECT BE","OBJECT_ID":"2018-099BE","EPOCH":"2026-03-09T15:10:24.322944","MEAN_MOTION":15.09972337,"ECCENTRICITY":0.0006427,"INCLINATION":97.4031,"RA_OF_ASC_NODE":111.7891,"ARG_OF_PERICENTER":340.4925,"MEAN_ANOMALY":19.6058,"EPHEMERIS_TYPE":0,"CLASSIFICATION_TYPE":"U","NORAD_CAT_ID":43810,"ELEMENT_SET_NO":999,"REV_AT_EPOCH":39698,"BSTAR":0.00027209,"MEAN_MOTION_DOT":4.358e-5,"MEAN_MOTION_DDOT":0}]
